[
    {
        "Altitude(m)": 607886.6944107022,
        "Argument of Periapsis(deg)": 0.0,
        "Eccentricity": 0.0,
        "Inclination(deg)": 60.0,
        "Latitude(deg)": 40.99845167767655,
        "Longitude(deg)": -160.02696509578615,
        "Mean Anomaly(deg)": 49.09089999999999,
        "RAAN(deg)": 270.0,
        "Satellite Name": "Test1 1191",
        "Satellite Number": 1191,
        "Semi-Major Axis(m)": 6980739.136638005,
        "Time(s)": 0
    },
    {
        "Altitude(m)": 607987.6082499679,
        "Argument of Periapsis(deg)": 0.00010418945913296404,
        "Eccentricity": 0.0,
        "Inclination(deg)": 60.0,
        "Latitude(deg)": 41.463541188416905,
        "Longitude(deg)": -159.52273625031344,
        "Mean Anomaly(deg)": 49.711006145461795,
        "RAAN(deg)": 269.99957995086027,
        "Satellite Name": "Test1 1191",
        "Satellite Number": 1191,
        "Semi-Major Axis(m)": 6980739.136638005,
        "Time(s)": 10
    }
]